<!DOCTYPE HTML PUBLIC "-//W3C//DTD HTML 4.0//EN">
<HTML>
<HEAD>
   <TITLE> Pseudo-MPEC for SO0005W </TITLE>
   <META http-equiv=Content-Type content="text/html; charset=utf-8">
   <style type="text/css">
   .neocp {color:black; background-color:black; text-decoration:blink;}
   .whtext {color:white;}
   </style>
</HEAD>
<BODY>

<P><b>  "Pseudo-MPEC" for SO0005W </b></p>

<p><i> Created 2026 Apr 28  9:18:13 UT using <a href="https://www.projectpluto.com/find_orb.htm">Find_Orb</a></i></p>
<p><i> <a href="https://www.projectpluto.com/mpec_xpl.htm"> Click here for an
   explanation of pseudo-MPECs </a> </i> </p>

<ul>
<li> <a href="#ast"> Astrometry </a> </li>
<li> <a href="#stations"> Observing stations </a> </li>
<li> <a href="#elements"> Orbital elements </a> </li>
<li> <a href="#residuals"> Residuals in arcseconds </a> </li>
<li> <a href="#eph"> Ephemeris </a> </li>

<li> <a href="https://cgi.minorplanetcenter.net/cgi-bin/showobsorbs.cgi?Obj=SO0005W&amp;obs=y"> Astrometry (from NEOCP,  if available) </a> </li>
<li> <a href="https://cneos.jpl.nasa.gov/scout/#/object/SO0005W"> 'Scout' (JPL) information </a> </li>
<li> <a href="https://neofixer.arizona.edu/site/500/SO0005W"> NEOfixer information </a> </li>
</ul>
<p>
<input type = "button" value = "Orbit Simulator View" onclick = "window.open('http://orbitsimulator.com/gravitySimulatorCloud/yr/gsim2023.html?sv,1,SO0005W,2461158.50,-290364072284.892395,-154438694379.843414,-12421196536.465946,9429.668775,-17729.108356,1.885395,0,0,00FF00,90,65,,16000,0,12,1,0,0.000000,0.150000')">
</p>
<pre> <a name="ast"></a>
<a href="https://www.projectpluto.com/mpec_xpl.htm#astrometry"> <b>Astrometry:</b> </a>
<a name="o001"></a><a href="#r001">     SO0005W</a>!0B2026 04 27.53432713 09 16.056-11 34 57.54? NoCode!16.85VVNEOCP<a href="#stn_E54">E54</a>
<a name="o002"></a><a href="#r002">     SO0005W</a>!0B2026 04 27.53581113 09 48.672-11 37 06.10   ~4RMK!16.79VVNEOCP<a href="#stn_E54">E54</a>
<a name="o003"></a><a href="#r003">     SO0005W</a>!0B2026 04 27.53735513 10 22.464-11 39 18.79   ~4RMK!16.78VVNEOCP<a href="#stn_E54">E54</a>
<a name="o004"></a><a href="#r004">     SO0005W</a>!0B2026 04 27.54619213 13 32.926-11 51 29.02   ~4RMK!16.92VVNEOCP<a href="#stn_E54">E54</a>
<a name="stations"></a>
<a href="https://www.projectpluto.com/mpec_xpl.htm#stns"><b>Station data:
</b></a><a name="stn_E54"></a>(E54) No information about station 'E54'.
<a name="elements"></a>
<a href="https://www.projectpluto.com/mpec_xpl.htm#elems"><b>Orbital elements:  SO0005W</b></a>
   Perigee 2026 Jan 4.47784 TT = 11:28:05 (JD 2461044.97784)     Find_Orb
Epoch 2026 Apr 28.0 TT = JDT 2461158.5
q   1.02097522                      (J2000 equator)
                   Peri.  301.03672
                   Node   173.94234
e39561.900602      Incl.  152.67930
0 of 4 observations
# State vector (heliocentric equatorial J2000):
#   -1.940963938365  -0.914143115216  -0.486827849134 AU
#   +5.446089428593  -9.394914452747  -4.072007071088 mAU/day
# State vector relative to central body:
#   -1.140920580125  -0.353622571880  -0.243858232011 AU
#   -4.716560993703   3.203908432033   1.388756516012 mAU/day
# Elements written: 28 Apr 2026  9:18:13 (JD 2461158.887659)
# Full range of obs: 2026 Apr. 27 (17.1 min) (4 observations)
# Find_Orb ver: 2026 Mar 01
# Perturbers: 00000000 (unperturbed orbit);  JPL DE-440
# Score: -0.446222
#  $Name=SO0005W  $Ty=2027  $Tm=02  $Td=19.734050  $MA=270.07125
#  $ecc=0.0000000  $Eqnx=2000.
#  $a=2.2000000  $Peri=0.07129  $Node=297.86496  $Incl=2.16293
#  $EpJD=2461158.500  $q=2.200000  $T=2461456.234051  $H=0.0
# Sigmas avail: 0
</pre> <!-- State vector (heliocentric equatorial J2000): -->
<!--   -1.940963938365  -0.914143115216  -0.486827849134 AU -->
<!--   +5.446089428593  -9.394914452747  -4.072007071088 mAU/day -->
<!-- State vector relative to central body: -->
<!--   -1.140920580125  -0.353622571880  -0.243858232011 AU -->
<!--   -4.716560993703   3.203908432033   1.388756516012 mAU/day -->
<!-- Elements written: 28 Apr 2026  9:18:13 (JD 2461158.887659) -->
<!-- Full range of obs: 2026 Apr. 27 (17.1 min) (4 observations) -->
<!-- Find_Orb ver: 2026 Mar 01 -->
<!-- Perturbers: 00000000 (unperturbed orbit);  JPL DE-440 -->
<!-- Score: -0.446222 -->
<!--  $Name=SO0005W  $Ty=2027  $Tm=02  $Td=19.734050  $MA=270.07125 -->
<!--  $ecc=0.0000000  $Eqnx=2000. -->
<!--  $a=2.2000000  $Peri=0.07129  $Node=297.86496  $Incl=2.16293 -->
<!--  $EpJD=2461158.500  $q=2.200000  $T=2461456.234051  $H=0.0 -->
<!-- Sigmas avail: 0 -->
<pre><b><a name="residuals"></a><a href="https://www.projectpluto.com/mpec_xpl.htm#resids">Residuals in arcseconds:</a> </b>
<a name="r001"></a><a href="#o001">260427</a> <a href="#stn_E54">E54</a>( .00   .00 )   <a name="r003"></a><a href="#o003">260427</a> <a href="#stn_E54">E54</a>( .00   .00 )   
<a name="r002"></a><a href="#o002">260427</a> <a href="#stn_E54">E54</a>( .00   .00 )   <a name="r004"></a><a href="#o004">260427</a> <a href="#stn_E54">E54</a>( .00   .00 )   

<a name="eph"></a><a href="https://www.projectpluto.com/mpec_xpl.htm#ephems"><b>Ephemerides (geocentric):</b></a>
Date (UTC) HH:MM   RA             Dec           delta  r     elong   "/min    PA  
---- -----------  ------------   ------------  ------ ------ -----  ------- ------
2026 01 01 00:00  13 06 52.303   -09 05 21.27  2.1218 2.2000  81.3   0.880 115.2 
2026 01 01 00:10  13 06 52.840   -09 05 25.02  2.1217 2.2000  81.3   0.880 115.2 
2026 01 01 00:20  13 06 53.378   -09 05 28.77  2.1216 2.2000  81.3   0.880 115.2 
2026 01 01 00:30  13 06 53.916   -09 05 32.52  2.1215 2.2000  81.3   0.880 115.2 
2026 01 01 00:40  13 06 54.453   -09 05 36.27  2.1214 2.2000  81.4   0.880 115.2 
2026 01 01 00:50  13 06 54.991   -09 05 40.02  2.1213 2.2000  81.4   0.880 115.2 
2026 01 01 01:00  13 06 55.528   -09 05 43.77  2.1213 2.2000  81.4   0.880 115.2 
2026 01 01 01:10  13 06 56.065   -09 05 47.52  2.1212 2.2000  81.4   0.880 115.2 
2026 01 01 01:20  13 06 56.603   -09 05 51.27  2.1211 2.2000  81.4   0.880 115.2 
2026 01 01 01:30  13 06 57.140   -09 05 55.02  2.1210 2.2000  81.4   0.880 115.2 
2026 01 01 01:40  13 06 57.677   -09 05 58.77  2.1209 2.2000  81.4   0.880 115.2 
2026 01 01 01:50  13 06 58.215   -09 06 02.52  2.1208 2.2000  81.4   0.880 115.2 
2026 01 01 02:00  13 06 58.752   -09 06 06.27  2.1208 2.2000  81.4   0.880 115.2 
2026 01 01 02:10  13 06 59.289   -09 06 10.02  2.1207 2.2000  81.4   0.880 115.2 
2026 01 01 02:20  13 06 59.826   -09 06 13.76  2.1206 2.2000  81.4   0.880 115.2 
2026 01 01 02:30  13 07 00.363   -09 06 17.51  2.1205 2.2000  81.4   0.879 115.2 
2026 01 01 02:40  13 07 00.900   -09 06 21.26  2.1204 2.2000  81.4   0.879 115.2 
2026 01 01 02:50  13 07 01.437   -09 06 25.01  2.1203 2.2000  81.4   0.879 115.2 
2026 01 01 03:00  13 07 01.974   -09 06 28.75  2.1202 2.2000  81.4   0.879 115.2 
2026 01 01 03:10  13 07 02.511   -09 06 32.50  2.1202 2.2000  81.4   0.879 115.2 
</pre>
<hr>
<p style="font-family: sans-serif; font-size: 0.9em;">
  <a href="https://www.projectpluto.com/neocp2/mpecs/SO0005W.htm" target="_blank" rel="noopener">Bill Gray&rsquo;s pseudo-MPEC for SO0005W &rarr;</a><br>
  <a href="../index.html">&larr; back to NEOCP artsat catalog</a>
</p>
</body></html>
